CTC2_L_00633001-01
1 10000U 25958RU  26075.70050926  .00000000  00000+0  00000-0 0  9998
2 10000  65.0000   0.0000 0000000   0.0000   0.0000  4.33913782    15
CTC2_L_00633001-02
1 10001U 26579LA  26075.70050926  .00000000  00000+0  00000-0 0  9999
2 10001  65.0000   0.0000 0000000   0.0000  36.0000  4.33913782    15
CTC2_L_00633001-03
1 10002U 26256CQ  26075.70050926  .00000000  00000+0  00000-0 0  9992
2 10002  65.0000   0.0000 0000000   0.0000  72.0000  4.33913782    16
CTC2_L_00633001-04
1 10003U 26456CP  26075.70050926  .00000000  00000+0  00000-0 0  9995
2 10003  65.0000   0.0000 0000000   0.0000 108.0000  4.33913782    17
CTC2_L_00633001-05
1 10004U 26913CN  26075.70050926  .00000000  00000+0  00000-0 0  9994
2 10004  65.0000   0.0000 0000000   0.0000 144.0000  4.33913782    18
CTC2_L_00633001-06
1 10005U 23413SV  26075.70050926  .00000000  00000+0  00000-0 0  9997
2 10005  65.0000   0.0000 0000000   0.0000 180.0000  4.33913782    19
CTC2_L_00633001-07
1 10006U 26318RD  26075.70050926  .00000000  00000+0  00000-0 0  9995
2 10006  65.0000   0.0000 0000000   0.0000 216.0000  4.33913782    10
CTC2_L_00633001-08
1 10007U 25035BV  26075.70050926  .00000000  00000+0  00000-0 0  9991
2 10007  65.0000   0.0000 0000000   0.0000 252.0000  4.33913782    11
CTC2_L_00633001-09
1 10008U 24067MC  26075.70050926  .00000000  00000+0  00000-0 0  9996
2 10008  65.0000   0.0000 0000000   0.0000 288.0000  4.33913782    11
CTC2_L_00633001-10
1 10009U 24012JI  26075.70050926  .00000000  00000+0  00000-0 0  9997
2 10009  65.0000   0.0000 0000000   0.0000 324.0000  4.33913782    13
CTC2_L_00633002-01
1 10010U 22944KI  26075.70050926  .00000000  00000+0  00000-0 0  9991
2 10010  65.0000  30.0000 0000000   0.0000  12.0000  4.33913782    12
CTC2_L_00633002-02
1 10011U 26488CQ  26075.70050926  .00000000  00000+0  00000-0 0  9999
2 10011  65.0000  30.0000 0000000   0.0000  48.0000  4.33913782    12
CTC2_L_00633002-03
1 10012U 23742BG  26075.70050926  .00000000  00000+0  00000-0 0  9990
2 10012  65.0000  30.0000 0000000   0.0000  84.0000  4.33913782    13
CTC2_L_00633002-04
1 10013U 25483JP  26075.70050926  .00000000  00000+0  00000-0 0  9995
2 10013  65.0000  30.0000 0000000   0.0000 120.0000  4.33913782    15
CTC2_L_00633002-05
1 10014U 22796AP  26075.70050926  .00000000  00000+0  00000-0 0  9990
2 10014  65.0000  30.0000 0000000   0.0000 156.0000  4.33913782    15
CTC2_L_00633002-06
1 10015U 24492LL  26075.70050926  .00000000  00000+0  00000-0 0  9996
2 10015  65.0000  30.0000 0000000   0.0000 192.0000  4.33913782    16
CTC2_L_00633002-07
1 10016U 24615UO  26075.70050926  .00000000  00000+0  00000-0 0  9994
2 10016  65.0000  30.0000 0000000   0.0000 228.0000  4.33913782    17
CTC2_L_00633002-08
1 10017U 24272AO  26075.70050926  .00000000  00000+0  00000-0 0  9994
2 10017  65.0000  30.0000 0000000   0.0000 264.0000  4.33913782    18
CTC2_L_00633002-09
1 10018U 23104AU  26075.70050926  .00000000  00000+0  00000-0 0  9998
2 10018  65.0000  30.0000 0000000   0.0000 300.0000  4.33913782    10
CTC2_L_00633002-10
1 10019U 25614FV  26075.70050926  .00000000  00000+0  00000-0 0  9997
2 10019  65.0000  30.0000 0000000   0.0000 336.0000  4.33913782    10
CTC2_L_00633003-01
1 10020U 24381ER  26075.70050926  .00000000  00000+0  00000-0 0  9999
2 10020  65.0000  60.0000 0000000   0.0000  24.0000  4.33913782    19
CTC2_L_00633003-02
1 10021U 23999UV  26075.70050926  .00000000  00000+0  00000-0 0  9994
2 10021  65.0000  60.0000 0000000   0.0000  60.0000  4.33913782    10
CTC2_L_00633003-03
1 10022U 24506WY  26075.70050926  .00000000  00000+0  00000-0 0  9990
2 10022  65.0000  60.0000 0000000   0.0000  96.0000  4.33913782    10
CTC2_L_00633003-04
1 10023U 25760XH  26075.70050926  .00000000  00000+0  00000-0 0  9994
2 10023  65.0000  60.0000 0000000   0.0000 132.0000  4.33913782    12
CTC2_L_00633003-05
1 10024U 23819K   26075.70050926  .00000000  00000+0  00000-0 0  9998
2 10024  65.0000  60.0000 0000000   0.0000 168.0000  4.33913782    12
CTC2_L_00633003-06
1 10025U 26072RC  26075.70050926  .00000000  00000+0  00000-0 0  9993
2 10025  65.0000  60.0000 0000000   0.0000 204.0000  4.33913782    14
CTC2_L_00633003-07
1 10026U 26561QT  26075.70050926  .00000000  00000+0  00000-0 0  9997
2 10026  65.0000  60.0000 0000000   0.0000 240.0000  4.33913782    15
CTC2_L_00633003-08
1 10027U 25047LG  26075.70050926  .00000000  00000+0  00000-0 0  9996
2 10027  65.0000  60.0000 0000000   0.0000 276.0000  4.33913782    15
CTC2_L_00633003-09
1 10028U 26711SE  26075.70050926  .00000000  00000+0  00000-0 0  9996
2 10028  65.0000  60.0000 0000000   0.0000 312.0000  4.33913782    17
CTC2_L_00633003-10
1 10029U 23122ON  26075.70050926  .00000000  00000+0  00000-0 0  9990
2 10029  65.0000  60.0000 0000000   0.0000 348.0000  4.33913782    17
CTC2_L_00633004-01
1 10030U 26342LD  26075.70050926  .00000000  00000+0  00000-0 0  9999
2 10030  65.0000  90.0000 0000000   0.0000  36.0000  4.33913782    16
CTC2_L_00633004-02
1 10031U 26489ZZ  26075.70050926  .00000000  00000+0  00000-0 0  9992
2 10031  65.0000  90.0000 0000000   0.0000  72.0000  4.33913782    17
CTC2_L_00633004-03
1 10032U 23217BO  26075.70050926  .00000000  00000+0  00000-0 0  9999
2 10032  65.0000  90.0000 0000000   0.0000 108.0000  4.33913782    18
CTC2_L_00633004-04
1 10033U 23786PS  26075.70050926  .00000000  00000+0  00000-0 0  9991
2 10033  65.0000  90.0000 0000000   0.0000 144.0000  4.33913782    19
CTC2_L_00633004-05
1 10034U 26613YY  26075.70050926  .00000000  00000+0  00000-0 0  9994
2 10034  65.0000  90.0000 0000000   0.0000 180.0000  4.33913782    10
CTC2_L_00633004-06
1 10035U 25446HX  26075.70050926  .00000000  00000+0  00000-0 0  9998
2 10035  65.0000  90.0000 0000000   0.0000 216.0000  4.33913782    11
CTC2_L_00633004-07
1 10036U 23269EP  26075.70050926  .00000000  00000+0  00000-0 0  9990
2 10036  65.0000  90.0000 0000000   0.0000 252.0000  4.33913782    12
CTC2_L_00633004-08
1 10037U 24517IU  26075.70050926  .00000000  00000+0  00000-0 0  9998
2 10037  65.0000  90.0000 0000000   0.0000 288.0000  4.33913782    12
CTC2_L_00633004-09
1 10038U 22977HD  26075.70050926  .00000000  00000+0  00000-0 0  9997
2 10038  65.0000  90.0000 0000000   0.0000 324.0000  4.33913782    14
CTC2_L_00633004-10
1 10039U 25579NG  26075.70050926  .00000000  00000+0  00000-0 0  9999
2 10039  65.0000  90.0000 0000000   0.0000   0.0000  4.33913782    16
CTC2_L_00633005-01
1 10040U 24365QK  26075.70050926  .00000000  00000+0  00000-0 0  9993
2 10040  65.0000 120.0000 0000000   0.0000  48.0000  4.33913782    14
CTC2_L_00633005-02
1 10041U 22864TJ  26075.70050926  .00000000  00000+0  00000-0 0  9996
2 10041  65.0000 120.0000 0000000   0.0000  84.0000  4.33913782    15
CTC2_L_00633005-03
1 10042U 24927IY  26075.70050926  .00000000  00000+0  00000-0 0  9999
2 10042  65.0000 120.0000 0000000   0.0000 120.0000  4.33913782    17
CTC2_L_00633005-04
1 10043U 25242PB  26075.70050926  .00000000  00000+0  00000-0 0  9991
2 10043  65.0000 120.0000 0000000   0.0000 156.0000  4.33913782    17
CTC2_L_00633005-05
1 10044U 25693C   26075.70050926  .00000000  00000+0  00000-0 0  9992
2 10044  65.0000 120.0000 0000000   0.0000 192.0000  4.33913782    18
CTC2_L_00633005-06
1 10045U 23659UQ  26075.70050926  .00000000  00000+0  00000-0 0  9993
2 10045  65.0000 120.0000 0000000   0.0000 228.0000  4.33913782    19
CTC2_L_00633005-07
1 10046U 23473EH  26075.70050926  .00000000  00000+0  00000-0 0  9998
2 10046  65.0000 120.0000 0000000   0.0000 264.0000  4.33913782    10
CTC2_L_00633005-08
1 10047U 25432RU  26075.70050926  .00000000  00000+0  00000-0 0  9996
2 10047  65.0000 120.0000 0000000   0.0000 300.0000  4.33913782    12
CTC2_L_00633005-09
1 10048U 25572ST  26075.70050926  .00000000  00000+0  00000-0 0  9992
2 10048  65.0000 120.0000 0000000   0.0000 336.0000  4.33913782    12
CTC2_L_00633005-10
1 10049U 25837DA  26075.70050926  .00000000  00000+0  00000-0 0  9997
2 10049  65.0000 120.0000 0000000   0.0000  12.0000  4.33913782    14
CTC2_L_00633006-01
1 10050U 24195CB  26075.70050926  .00000000  00000+0  00000-0 0  9995
2 10050  65.0000 150.0000 0000000   0.0000  60.0000  4.33913782    12
CTC2_L_00633006-02
1 10051U 24431WX  26075.70050926  .00000000  00000+0  00000-0 0  9999
2 10051  65.0000 150.0000 0000000   0.0000  96.0000  4.33913782    12
CTC2_L_00633006-03
1 10052U 24072TT  26075.70050926  .00000000  00000+0  00000-0 0  9991
2 10052  65.0000 150.0000 0000000   0.0000 132.0000  4.33913782    14
CTC2_L_00633006-04
1 10053U 22375VU  26075.70050926  .00000000  00000+0  00000-0 0  9996
2 10053  65.0000 150.0000 0000000   0.0000 168.0000  4.33913782    14
CTC2_L_00633006-05
1 10054U 25642RL  26075.70050926  .00000000  00000+0  00000-0 0  9997
2 10054  65.0000 150.0000 0000000   0.0000 204.0000  4.33913782    16
CTC2_L_00633006-06
1 10055U 26270QA  26075.70050926  .00000000  00000+0  00000-0 0  9996
2 10055  65.0000 150.0000 0000000   0.0000 240.0000  4.33913782    17
CTC2_L_00633006-07
1 10056U 22856XN  26075.70050926  .00000000  00000+0  00000-0 0  9993
2 10056  65.0000 150.0000 0000000   0.0000 276.0000  4.33913782    17
CTC2_L_00633006-08
1 10057U 23755QE  26075.70050926  .00000000  00000+0  00000-0 0  9993
2 10057  65.0000 150.0000 0000000   0.0000 312.0000  4.33913782    19
CTC2_L_00633006-09
1 10058U 24151ET  26075.70050926  .00000000  00000+0  00000-0 0  9995
2 10058  65.0000 150.0000 0000000   0.0000 348.0000  4.33913782    19
CTC2_L_00633006-10
1 10059U 23110RU  26075.70050926  .00000000  00000+0  00000-0 0  9990
2 10059  65.0000 150.0000 0000000   0.0000  24.0000  4.33913782    11
CTC2_L_00633007-01
1 10060U 26906JP  26075.70050926  .00000000  00000+0  00000-0 0  9998
2 10060  65.0000 180.0000 0000000   0.0000  72.0000  4.33913782    19
CTC2_L_00633007-02
1 10061U 26241QV  26075.70050926  .00000000  00000+0  00000-0 0  9991
2 10061  65.0000 180.0000 0000000   0.0000 108.0000  4.33913782    10
